{
"type": "FeatureCollection",
"name": "exemplo",
"crs": { "type": "name", "properties": { "name": "urn:ogc:def:crs:EPSG::31982" } },
"features": [
{ "type": "Feature", "properties": { "fid": 1 }, "geometry": { "type": "Polygon", "coordinates": [ [ [ 817372.201919516082853, 7629496.693510039709508 ], [ 817450.309683311264962, 7629581.177417818456888 ], [ 817534.590657469700091, 7629653.418252811767161 ], [ 817657.400076957768761, 7629713.618948639370501 ], [ 817796.76468779775314, 7629792.111660491675138 ], [ 818071.425612343009561, 7629674.60028153564781 ], [ 817670.698799996403977, 7629368.714495660737157 ], [ 817670.794731778325513, 7629371.528494597412646 ], [ 817372.201919516082853, 7629496.693510039709508 ] ] ] } },
{ "type": "Feature", "properties": { "fid": 2 }, "geometry": { "type": "Polygon", "coordinates": [ [ [ 819518.83187959191855, 7628885.564904442988336 ], [ 819520.573646296281368, 7628885.597344223409891 ], [ 819519.585245331632905, 7628884.638229213654995 ], [ 819518.83187959191855, 7628885.564904442988336 ] ] ] } },
{ "type": "Feature", "properties": { "fid": 3 }, "geometry": { "type": "Polygon", "coordinates": [ [ [ 817129.299548095092177, 7629123.96239651273936 ], [ 817142.23378188314382, 7629329.062389438971877 ], [ 817663.122443660860881, 7629146.47470981720835 ], [ 817655.963094192091376, 7628936.467125399038196 ], [ 817129.299548095092177, 7629123.96239651273936 ] ] ] } },
{ "type": "Feature", "properties": { "fid": 4 }, "geometry": { "type": "Polygon", "coordinates": [ [ [ 817142.23378188314382, 7629329.062389438971877 ], [ 817158.455492221633904, 7629586.292367663234472 ], [ 817670.794731778325513, 7629371.528494597412646 ], [ 817663.122443660860881, 7629146.47470981720835 ], [ 817142.23378188314382, 7629329.062389438971877 ] ] ] } },
{ "type": "Feature", "properties": { "fid": 5 }, "geometry": { "type": "Polygon", "coordinates": [ [ [ 817082.409363730694167, 7628380.418044450692832 ], [ 817115.987860847613774, 7628912.877070160582662 ], [ 817636.194172271410935, 7628725.466499451547861 ], [ 817372.199280473520048, 7628514.270586012862623 ], [ 817374.607308306614868, 7628266.243719202466309 ], [ 817342.588476681383327, 7628228.403281827457249 ], [ 817082.409363730694167, 7628380.418044450692832 ] ] ] } },
{ "type": "Feature", "properties": { "fid": 6 }, "geometry": { "type": "Polygon", "coordinates": [ [ [ 817115.987860847613774, 7628912.877070160582662 ], [ 817129.299548095092177, 7629123.96239651273936 ], [ 817655.963094192091376, 7628936.467125399038196 ], [ 817649.12248128047213, 7628735.80914665851742 ], [ 817636.194172271410935, 7628725.466499451547861 ], [ 817115.987860847613774, 7628912.877070160582662 ] ] ] } },
{ "type": "Feature", "properties": { "fid": 7 }, "geometry": { "type": "Polygon", "coordinates": [ [ [ 816672.290172455366701, 7629286.660379736684263 ], [ 816684.534036152646877, 7629489.500388321466744 ], [ 817142.23378188314382, 7629329.062389438971877 ], [ 817129.299548095092177, 7629123.96239651273936 ], [ 816672.290172455366701, 7629286.660379736684263 ] ] ] } },
{ "type": "Feature", "properties": { "fid": 8 }, "geometry": { "type": "Polygon", "coordinates": [ [ [ 816684.534036152646877, 7629489.500388321466744 ], [ 816701.928030526963994, 7629777.660895124077797 ], [ 817158.455492221633904, 7629586.292367663234472 ], [ 817142.23378188314382, 7629329.062389438971877 ], [ 816684.534036152646877, 7629489.500388321466744 ] ] ] } },
{ "type": "Feature", "properties": { "fid": 9 }, "geometry": { "type": "Polygon", "coordinates": [ [ [ 816633.42219925369136, 7628642.747623695991933 ], [ 816659.651382915442809, 7629077.277766359038651 ], [ 817115.987860847613774, 7628912.877070160582662 ], [ 817082.409363730694167, 7628380.418044450692832 ], [ 816633.42219925369136, 7628642.747623695991933 ] ] ] } },
{ "type": "Feature", "properties": { "fid": 10 }, "geometry": { "type": "Polygon", "coordinates": [ [ [ 816659.651382915442809, 7629077.277766359038651 ], [ 816672.290172455366701, 7629286.660379736684263 ], [ 817129.299548095092177, 7629123.96239651273936 ], [ 817115.987860847613774, 7628912.877070160582662 ], [ 816659.651382915442809, 7629077.277766359038651 ] ] ] } },
{ "type": "Feature", "properties": { "fid": 11 }, "geometry": { "type": "Polygon", "coordinates": [ [ [ 816684.534036152646877, 7629489.500388321466744 ], [ 816672.290172455366701, 7629286.660379736684263 ], [ 816297.181111343204975, 7629420.20137689076364 ], [ 816268.118518995703198, 7629503.970025422051549 ], [ 816306.646964325336739, 7629583.434943914413452 ], [ 816321.592484140302986, 7629616.722692593000829 ], [ 816684.534036152646877, 7629489.500388321466744 ] ] ] } },
{ "type": "Feature", "properties": { "fid": 12 }, "geometry": { "type": "Polygon", "coordinates": [ [ [ 816701.928030526963994, 7629777.660895124077797 ], [ 816684.534036152646877, 7629489.500388321466744 ], [ 816321.592484140302986, 7629616.722692593000829 ], [ 816359.623576653655618, 7629701.428307736292481 ], [ 816407.784133315668441, 7629865.17420038767159 ], [ 816412.184076603502035, 7629899.116620036773384 ], [ 816701.928030526963994, 7629777.660895124077797 ] ] ] } },
{ "type": "Feature", "properties": { "fid": 13 }, "geometry": { "type": "Polygon", "coordinates": [ [ [ 816659.651382915442809, 7629077.277766359038651 ], [ 816633.42219925369136, 7628642.747623695991933 ], [ 816453.536662144702859, 7628747.849285827018321 ], [ 816448.720606478396803, 7628827.314204319380224 ], [ 816451.128634311608039, 7628844.170399151742458 ], [ 816451.128634311608039, 7628894.738983646966517 ], [ 816431.86441164673306, 7628918.819261977449059 ], [ 816402.968077649478801, 7628947.715595974586904 ], [ 816369.2556879860349, 7628962.163762973621488 ], [ 816357.215548820560798, 7628966.97981864027679 ], [ 816321.095131323905662, 7629010.324319635517895 ], [ 816301.830908659147099, 7629075.341071129776537 ], [ 816301.830908659147099, 7629116.455916721373796 ], [ 816644.974874876439571, 7629082.5651546260342 ], [ 816659.651382915442809, 7629077.277766359038651 ] ] ] } },
{ "type": "Feature", "properties": { "fid": 14 }, "geometry": { "type": "Polygon", "coordinates": [ [ [ 816672.290172455366701, 7629286.660379736684263 ], [ 816659.651382915442809, 7629077.277766359038651 ], [ 816644.974874876439571, 7629082.5651546260342 ], [ 816301.830908659147099, 7629116.455916721373796 ], [ 816301.830908659147099, 7629130.725711290724576 ], [ 816304.238936492241919, 7629200.558518450707197 ], [ 816309.05499215843156, 7629253.535130779258907 ], [ 816309.05499215843156, 7629318.551882272586226 ], [ 816309.05499215843156, 7629385.97666160017252 ], [ 816297.181111343204975, 7629420.20137689076364 ], [ 816672.290172455366701, 7629286.660379736684263 ] ] ] } },
{ "type": "Feature", "properties": { "fid": 15 }, "geometry": { "type": "Polygon", "coordinates": [ [ [ 817935.37885877629742, 7629570.752056639641523 ], [ 817982.483834424521774, 7629110.407976441085339 ], [ 817946.630301625002176, 7628608.458517248742282 ], [ 817628.762151605216786, 7628719.52088291849941 ], [ 817649.12248128047213, 7628735.80914665851742 ], [ 817670.698799996403977, 7629368.714495660737157 ], [ 817935.37885877629742, 7629570.752056639641523 ] ] ] } },
{ "type": "Feature", "properties": { "fid": 16 }, "geometry": { "type": "Polygon", "coordinates": [ [ [ 817210.425030969199724, 7630042.972177781164646 ], [ 817325.092235990101472, 7630168.736209094524384 ], [ 817538.220623139175586, 7630317.339488208293915 ], [ 818416.289677517488599, 7629937.844497659243643 ], [ 818071.425612343009561, 7629674.60028153564781 ], [ 817210.425030969199724, 7630042.972177781164646 ] ] ] } },
{ "type": "Feature", "properties": { "fid": 17 }, "geometry": { "type": "Polygon", "coordinates": [ [ [ 817210.425030969199724, 7630042.972177781164646 ], [ 817175.794510337989777, 7630004.990316444076598 ], [ 817077.065369180985726, 7629915.893286619335413 ], [ 816975.92820019077044, 7629783.451755799353123 ], [ 816931.630165885901079, 7629681.373676748946309 ], [ 816412.184076603502035, 7629899.116620036773384 ], [ 816424.640328147448599, 7629995.207703375257552 ], [ 816484.841023975051939, 7630204.706124855205417 ], [ 816523.569239168660715, 7630336.837682574987411 ], [ 817210.425030969199724, 7630042.972177781164646 ] ] ] } },
{ "type": "Feature", "properties": { "fid": 18 }, "geometry": { "type": "Polygon", "coordinates": [ [ [ 817538.220623139175586, 7630317.339488208293915 ], [ 817325.092235990101472, 7630168.736209094524384 ], [ 817210.425030969199724, 7630042.972177781164646 ], [ 816523.569239168660715, 7630336.837682574987411 ], [ 816525.777497137780301, 7630344.37173917517066 ], [ 816525.777497137780301, 7630563.502271987497807 ], [ 816548.286459822207689, 7630745.181756511330605 ], [ 817538.220623139175586, 7630317.339488208293915 ] ] ] } },
{ "type": "Feature", "properties": { "fid": 19 }, "geometry": { "type": "Polygon", "coordinates": [ [ [ 817796.76468779775314, 7629792.111660491675138 ], [ 817657.400076957768761, 7629713.618948639370501 ], [ 817534.590657469700091, 7629653.418252811767161 ], [ 817450.309683311264962, 7629581.177417818456888 ], [ 817372.201919516082853, 7629496.693510039709508 ], [ 816931.630165885901079, 7629681.373676748946309 ], [ 816975.92820019077044, 7629783.451755799353123 ], [ 817077.065369180985726, 7629915.893286619335413 ], [ 817175.794510337989777, 7630004.990316444076598 ], [ 817210.425030969199724, 7630042.972177781164646 ], [ 817796.76468779775314, 7629792.111660491675138 ] ] ] } },
{ "type": "Feature", "properties": { "fid": 20 }, "geometry": { "type": "Polygon", "coordinates": [ [ [ 818055.500277908635326, 7630093.775023979134858 ], [ 818203.720237498520873, 7630348.609340467490256 ], [ 818710.071228128275834, 7630136.705762879922986 ], [ 818666.363739026128314, 7630072.415095770731568 ], [ 818595.326917949831113, 7630049.538831356912851 ], [ 818586.180333302239887, 7630032.770092835649848 ], [ 818583.437280524522066, 7630036.144176534377038 ], [ 818520.828556863823906, 7630009.655870370566845 ], [ 818417.283360040397383, 7629937.415035377256572 ], [ 818055.500277908635326, 7630093.775023979134858 ] ] ] } },
{ "type": "Feature", "properties": { "fid": 21 }, "geometry": { "type": "Polygon", "coordinates": [ [ [ 816959.644292556680739, 7631177.918430184945464 ], [ 816889.239198199240491, 7631078.970730006694794 ], [ 816874.791031200671569, 7630951.345254852436483 ], [ 816850.710752869606949, 7630806.863584865815938 ], [ 816824.056573700043373, 7630625.995940500870347 ], [ 816548.286459822207689, 7630745.181756511330605 ], [ 816559.489886801224202, 7630835.60941712744534 ], [ 816593.202276464668103, 7630996.947281945496798 ], [ 816617.282554795616306, 7631117.348673600703478 ], [ 816626.914666128112003, 7631211.261759091168642 ], [ 816682.299306289409287, 7631290.726677584461868 ], [ 816663.730425017420202, 7631301.751950839534402 ], [ 816959.644292556680739, 7631177.918430184945464 ] ] ] } },
{ "type": "Feature", "properties": { "fid": 22 }, "geometry": { "type": "Polygon", "coordinates": [ [ [ 818203.720237498520873, 7630348.609340467490256 ], [ 818348.118097121594474, 7630596.872327187098563 ], [ 818873.454132672632113, 7630377.030616657808423 ], [ 818710.071228128275834, 7630136.705762879922986 ], [ 818203.720237498520873, 7630348.609340467490256 ] ] ] } },
{ "type": "Feature", "properties": { "fid": 23 }, "geometry": { "type": "Polygon", "coordinates": [ [ [ 817258.924903566134162, 7630438.049045083113015 ], [ 817330.48132596060168, 7630714.052388604730368 ], [ 817755.314798357547261, 7630536.263198209926486 ], [ 817635.670987789868377, 7630275.222156971693039 ], [ 817258.924903566134162, 7630438.049045083113015 ] ] ] } },
{ "type": "Feature", "properties": { "fid": 24 }, "geometry": { "type": "Polygon", "coordinates": [ [ [ 817330.48132596060168, 7630714.052388604730368 ], [ 817402.676405050908215, 7630992.519122239202261 ], [ 817874.026041204575449, 7630795.269546239636838 ], [ 817755.314798357547261, 7630536.263198209926486 ], [ 817330.48132596060168, 7630714.052388604730368 ] ] ] } },
{ "type": "Feature", "properties": { "fid": 25 }, "geometry": { "type": "Polygon", "coordinates": [ [ [ 816740.26051571010612, 7631689.984309712424874 ], [ 816849.334706948953681, 7631636.777387156151235 ], [ 816635.424972997861914, 7631318.558312975801528 ], [ 816451.128634311491624, 7631427.98426407109946 ], [ 816554.673831135034561, 7631558.017767058685422 ], [ 816708.787612453568727, 7631663.970991714857519 ], [ 816740.26051571010612, 7631689.984309712424874 ] ] ] } },
{ "type": "Feature", "properties": { "fid": 26 }, "geometry": { "type": "Polygon", "coordinates": [ [ [ 817959.283328728401102, 7632386.239189508371055 ], [ 817524.578720467048697, 7632579.847124279476702 ], [ 817556.413409706088714, 7632599.489804874174297 ], [ 817652.734523030230775, 7632703.035001697018743 ], [ 817739.423525021993555, 7632736.747391360811889 ], [ 817826.112527013756335, 7632739.15541919413954 ], [ 817888.721250674454495, 7632681.362751199863851 ], [ 817965.778141333721578, 7632546.513192545622587 ], [ 817965.778141333721578, 7632481.496441051363945 ], [ 817959.283328728401102, 7632386.239189508371055 ] ] ] } },
{ "type": "Feature", "properties": { "fid": 27 }, "geometry": { "type": "Polygon", "coordinates": [ [ [ 816849.334706948953681, 7631636.777387156151235 ], [ 816740.26051571010612, 7631689.984309712424874 ], [ 816826.780976275564171, 7631761.496118953451514 ], [ 816913.469978267210536, 7631896.345677607692778 ], [ 816976.078701927908696, 7632060.091570259071887 ], [ 817048.319536921102554, 7632161.228739248588681 ], [ 817154.272761577623896, 7632310.526464901864529 ], [ 817224.105568737839349, 7632392.39941122662276 ], [ 817322.83470989507623, 7632423.703773057088256 ], [ 817443.23610155028291, 7632529.656997714191675 ], [ 817524.578720467048697, 7632579.847124279476702 ], [ 817758.205479039810598, 7632475.794870461337268 ], [ 817217.934997417032719, 7632015.69355707988143 ], [ 816947.031866193399765, 7631782.1148572685197 ], [ 816849.334706948953681, 7631636.777387156151235 ] ] ] } },
{ "type": "Feature", "properties": { "fid": 28 }, "geometry": { "type": "Polygon", "coordinates": [ [ [ 818755.416432472760789, 7632376.769121890887618 ], [ 819927.064288640511222, 7631854.802778385579586 ], [ 819753.943812092533335, 7631612.563305603340268 ], [ 818460.318053781986237, 7632172.065355340950191 ], [ 818727.768448769347742, 7632372.081676377914846 ], [ 818755.416432472760789, 7632376.769121890887618 ] ] ] } },
{ "type": "Feature", "properties": { "fid": 29 }, "geometry": { "type": "Polygon", "coordinates": [ [ [ 818377.623918674420565, 7631184.908158222213387 ], [ 818626.131275621592067, 7631412.038538227789104 ], [ 819375.613983186311089, 7631083.183880826458335 ], [ 819374.323921957053244, 7631081.3787578381598 ], [ 819203.045768151874654, 7630836.695680974051356 ], [ 818377.623918674420565, 7631184.908158222213387 ] ] ] } },
{ "type": "Feature", "properties": { "fid": 30 }, "geometry": { "type": "Polygon", "coordinates": [ [ [ 818539.995727610774338, 7630820.85304650850594 ], [ 818747.862137311603874, 7631028.719456208869815 ], [ 819203.045768151874654, 7630836.695680974051356 ], [ 819054.056220154860057, 7630623.853469549678266 ], [ 819042.291789052542299, 7630608.587719666771591 ], [ 818539.995727610774338, 7630820.85304650850594 ] ] ] } },
{ "type": "Feature", "properties": { "fid": 31 }, "geometry": { "type": "Polygon", "coordinates": [ [ [ 817334.650504993507639, 7631330.219966290518641 ], [ 817586.570753594278358, 7631518.621861611492932 ], [ 818240.069388019968756, 7631242.936915162019432 ], [ 817968.046653143712319, 7631062.553044871427119 ], [ 817334.650504993507639, 7631330.219966290518641 ] ] ] } },
{ "type": "Feature", "properties": { "fid": 32 }, "geometry": { "type": "Polygon", "coordinates": [ [ [ 818143.327411538222805, 7632649.453330269083381 ], [ 818755.416432472760789, 7632376.769121890887618 ], [ 818727.768448769347742, 7632372.081676377914846 ], [ 818460.318053781986237, 7632172.065355340950191 ], [ 818173.73237987596076, 7632296.015633035451174 ], [ 818175.276562813669443, 7632298.486325736157596 ], [ 818158.4203679820057, 7632423.703773057088256 ], [ 818146.380228816531599, 7632606.713888373225927 ], [ 818143.327411538222805, 7632649.453330269083381 ] ] ] } },
{ "type": "Feature", "properties": { "fid": 33 }, "geometry": { "type": "Polygon", "coordinates": [ [ [ 817228.96037662611343, 7632025.082912277430296 ], [ 817881.142604278284125, 7631738.921322592534125 ], [ 817586.570753594161943, 7631518.621861611492932 ], [ 816951.940345916547813, 7631786.347057563252747 ], [ 817217.934997417032719, 7632015.69355707988143 ], [ 817228.96037662611343, 7632025.082912277430296 ] ] ] } },
{ "type": "Feature", "properties": { "fid": 34 }, "geometry": { "type": "Polygon", "coordinates": [ [ [ 817586.570753594278358, 7631518.621861611492932 ], [ 817334.650504993507639, 7631330.219966290518641 ], [ 816796.216402352554724, 7631557.756870425306261 ], [ 816947.031866193399765, 7631782.1148572685197 ], [ 816951.940345916547813, 7631786.347057563252747 ], [ 817586.570753594278358, 7631518.621861611492932 ] ] ] } },
{ "type": "Feature", "properties": { "fid": 35 }, "geometry": { "type": "Polygon", "coordinates": [ [ [ 818626.131275621592067, 7631412.038538227789104 ], [ 818890.230994787532836, 7631653.42000198084861 ], [ 819575.137614327250049, 7631362.368066192604601 ], [ 819375.613983186311089, 7631083.183880826458335 ], [ 818626.131275621592067, 7631412.038538227789104 ] ] ] } },
{ "type": "Feature", "properties": { "fid": 36 }, "geometry": { "type": "Polygon", "coordinates": [ [ [ 817490.832166229607537, 7632248.09630729444325 ], [ 818173.867553654476069, 7631957.839553963392973 ], [ 817881.142604278284125, 7631738.921322592534125 ], [ 817228.96037662611343, 7632025.082912277430296 ], [ 817490.832166229607537, 7632248.09630729444325 ] ] ] } },
{ "type": "Feature", "properties": { "fid": 37 }, "geometry": { "type": "Polygon", "coordinates": [ [ [ 818890.230994787532836, 7631653.42000198084861 ], [ 819137.322459774557501, 7631879.256287184543908 ], [ 819753.943812092533335, 7631612.563305603340268 ], [ 819575.137614327250049, 7631362.368066192604601 ], [ 818890.230994787532836, 7631653.42000198084861 ] ] ] } },
{ "type": "Feature", "properties": { "fid": 38 }, "geometry": { "type": "Polygon", "coordinates": [ [ [ 818173.867553654476069, 7631957.839553963392973 ], [ 817490.832166229607537, 7632248.09630729444325 ], [ 817758.205479039810598, 7632475.794870461337268 ], [ 817959.283328728401102, 7632386.239189508371055 ], [ 817951.329974335036241, 7632269.589991739019752 ], [ 817915.209556838497519, 7632250.325769074261189 ], [ 817936.881807336467318, 7632194.941128912381828 ], [ 818028.386864994419739, 7632226.245490742847323 ], [ 818139.156145317130722, 7632240.693657741881907 ], [ 818173.73237987596076, 7632296.015633035451174 ], [ 818460.318053781986237, 7632172.065355340950191 ], [ 818173.867553654476069, 7631957.839553963392973 ] ] ] } },
{ "type": "Feature", "properties": { "fid": 39 }, "geometry": { "type": "Polygon", "coordinates": [ [ [ 818626.131275621592067, 7631412.038538227789104 ], [ 818377.623918674420565, 7631184.908158222213387 ], [ 817586.570753594161943, 7631518.621861611492932 ], [ 817881.142604278284125, 7631738.921322592534125 ], [ 818626.131275621592067, 7631412.038538227789104 ] ] ] } },
{ "type": "Feature", "properties": { "fid": 40 }, "geometry": { "type": "Polygon", "coordinates": [ [ [ 818890.230994787532836, 7631653.42000198084861 ], [ 818626.131275621592067, 7631412.038538227789104 ], [ 817881.142604278284125, 7631738.921322592534125 ], [ 818173.867553654476069, 7631957.839553963392973 ], [ 818890.230994787532836, 7631653.42000198084861 ] ] ] } },
{ "type": "Feature", "properties": { "fid": 41 }, "geometry": { "type": "Polygon", "coordinates": [ [ [ 819137.322459774557501, 7631879.256287184543908 ], [ 818890.230994787532836, 7631653.42000198084861 ], [ 818173.867553654476069, 7631957.839553963392973 ], [ 818460.318053781986237, 7632172.065355340950191 ], [ 819137.322459774557501, 7631879.256287184543908 ] ] ] } },
{ "type": "Feature", "properties": { "fid": 42 }, "geometry": { "type": "Polygon", "coordinates": [ [ [ 819817.705782868666574, 7632719.417924180626869 ], [ 819926.966309651033953, 7632711.613600838929415 ], [ 820058.203826554934494, 7632688.737336424179375 ], [ 820193.342292959685437, 7632625.029202261939645 ], [ 820054.932932562544011, 7632202.468174824491143 ], [ 819621.999954384984449, 7632465.798542994074523 ], [ 819659.675220178673044, 7632475.626873201690614 ], [ 819817.705782868666574, 7632719.417924180626869 ] ] ] } },
{ "type": "Feature", "properties": { "fid": 43 }, "geometry": { "type": "Polygon", "coordinates": [ [ [ 819461.891297089052387, 7632914.012196481227875 ], [ 819460.379861055174842, 7632917.94193016923964 ], [ 819462.380652824067511, 7632915.031687595881522 ], [ 819461.891297089052387, 7632914.012196481227875 ] ] ] } },
{ "type": "Feature", "properties": { "fid": 44 }, "geometry": { "type": "Polygon", "coordinates": [ [ [ 819621.999954384984449, 7632465.798542994074523 ], [ 820054.932932562544011, 7632202.468174824491143 ], [ 819952.89385330688674, 7631890.944893123582006 ], [ 819927.064288640511222, 7631854.802778385579586 ], [ 818755.416432472760789, 7632376.769121890887618 ], [ 819565.762134687742218, 7632514.15531853120774 ], [ 819604.29058001737576, 7632461.178706202656031 ], [ 819621.999954384984449, 7632465.798542994074523 ] ] ] } },
{ "type": "Feature", "properties": { "fid": 45 }, "geometry": { "type": "Polygon", "coordinates": [ [ [ 818578.033868510392494, 7627800.45282210316509 ], [ 818594.12290403235238, 7627885.925823313184083 ], [ 818697.668100855662487, 7628003.919187135063112 ], [ 818743.42062968458049, 7628086.996147377416492 ], [ 818865.267128910985775, 7628287.48902337718755 ], [ 819043.087059985729866, 7628225.359167941845953 ], [ 819062.634819312253967, 7628191.594856377691031 ], [ 818980.761872986680828, 7628068.785436889156699 ], [ 818848.320342166000046, 7627977.280379232019186 ], [ 818694.206560847349465, 7627895.407432907260954 ], [ 818585.845308357616886, 7627801.494347415864468 ], [ 818578.033868510392494, 7627800.45282210316509 ] ] ] } },
{ "type": "Feature", "properties": { "fid": 46 }, "geometry": { "type": "Polygon", "coordinates": [ [ [ 817920.653391751809977, 7627890.657488752156496 ], [ 818054.724669418297708, 7627860.641531066037714 ], [ 818202.818381153861992, 7627881.109767647460103 ], [ 818319.607731059193611, 7627883.517795480787754 ], [ 818452.320364351035096, 7627927.755339910276234 ], [ 818492.985735042253509, 7627881.109767647460103 ], [ 818475.005924617522396, 7627786.715762916952372 ], [ 818441.363638371462002, 7627782.230124751105905 ], [ 818178.888604563195258, 7627811.126458748243749 ], [ 818060.895240741083398, 7627808.718430915847421 ], [ 817920.653391751809977, 7627890.657488752156496 ] ] ] } },
{ "type": "Feature", "properties": { "fid": 47 }, "geometry": { "type": "Polygon", "coordinates": [ [ [ 818859.691504513612017, 7628295.099286238662899 ], [ 818859.57814672740642, 7628289.476740044541657 ], [ 818854.69111903232988, 7628291.184255745261908 ], [ 818859.691504513612017, 7628295.099286238662899 ] ] ] } },
{ "type": "Feature", "properties": { "fid": 48 }, "geometry": { "type": "Polygon", "coordinates": [ [ [ 818859.57814672740642, 7628289.476740043610334 ], [ 818859.341491825296544, 7628277.738656899891794 ], [ 818743.42062968458049, 7628086.996147377416492 ], [ 818741.843596046790481, 7628084.132586298510432 ], [ 818647.099516360554844, 7628158.032968454062939 ], [ 818580.878750950330868, 7628079.772063878364861 ], [ 818543.554319537361152, 7628073.751994295045733 ], [ 818507.433902040822431, 7628025.591437633149326 ], [ 818452.049261879525147, 7627928.066310392692685 ], [ 818452.320364351035096, 7627927.755339910276234 ], [ 818319.607731059193611, 7627883.517795480787754 ], [ 818202.818381153861992, 7627881.109767647460103 ], [ 818054.724669418297708, 7627860.641531066037714 ], [ 817920.653391751809977, 7627890.657488752156496 ], [ 817755.972590153687634, 7627986.87548519205302 ], [ 817866.898498435970396, 7627995.491089718416333 ], [ 818027.032349337008782, 7627999.10313146840781 ], [ 818137.80162965960335, 7628047.263688130304217 ], [ 818235.326756900059991, 7628152.012898869812489 ], [ 818320.811744975158945, 7628280.842387940734625 ], [ 818323.219772808253765, 7628367.531389932148159 ], [ 818304.037997677689418, 7628483.581129470840096 ], [ 818859.57814672740642, 7628289.476740043610334 ] ] ] } },
{ "type": "Feature", "properties": { "fid": 49 }, "geometry": { "type": "Polygon", "coordinates": [ [ [ 817860.377631130395457, 7628250.842962983064353 ], [ 817375.993435982964002, 7628517.30591042060405 ], [ 817628.762151605216786, 7628719.52088291849941 ], [ 818013.568184856674634, 7628585.070582143962383 ], [ 818008.972140589146875, 7628521.645171251147985 ], [ 817992.115945757483132, 7628419.303988344967365 ], [ 817958.403556094039232, 7628331.410972436890006 ], [ 817921.079124681069516, 7628291.678513190709054 ], [ 817860.377631130395457, 7628250.842962983064353 ] ] ] } },
{ "type": "Feature", "properties": { "fid": 50 }, "geometry": { "type": "Polygon", "coordinates": [ [ [ 818304.037997677689418, 7628483.581129470840096 ], [ 818323.219772808253765, 7628367.531389932148159 ], [ 818320.811744975158945, 7628280.842387940734625 ], [ 818235.326756900059991, 7628152.012898869812489 ], [ 818137.80162965960335, 7628047.263688130304217 ], [ 818027.032349337008782, 7627999.10313146840781 ], [ 817866.898498435970396, 7627995.491089718416333 ], [ 817755.972590153687634, 7627986.87548519205302 ], [ 817342.588476681383327, 7628228.403281827457249 ], [ 817364.349306458025239, 7628254.120626108720899 ], [ 817854.85835927084554, 7628247.129998277872801 ], [ 817921.079124681069516, 7628291.678513190709054 ], [ 817958.403556094039232, 7628331.410972436890006 ], [ 817992.115945757483132, 7628419.303988344967365 ], [ 818008.972140589146875, 7628521.645171251147985 ], [ 818013.568184856674634, 7628585.070582143962383 ], [ 818304.037997677689418, 7628483.581129470840096 ] ] ] } },
{ "type": "Feature", "properties": { "fid": 51 }, "geometry": { "type": "Polygon", "coordinates": [ [ [ 818489.809522298513912, 7628866.39973159879446 ], [ 818461.854669095948339, 7628428.440364759415388 ], [ 817946.630301625002176, 7628608.458517248742282 ], [ 817964.355646204203367, 7628856.613341356627643 ], [ 818489.809522298513912, 7628866.39973159879446 ] ] ] } },
{ "type": "Feature", "properties": { "fid": 52 }, "geometry": { "type": "Polygon", "coordinates": [ [ [ 818420.373985516256653, 7629939.571285708807409 ], [ 818494.956758131738752, 7629306.573907868936658 ], [ 817980.509171077632345, 7629082.762689583934844 ], [ 817982.483834424521774, 7629110.407976441085339 ], [ 817935.37885877629742, 7629570.752056639641523 ], [ 818416.289677517488599, 7629937.844497659243643 ], [ 818417.283360040397383, 7629937.415035377256572 ], [ 818420.373985516256653, 7629939.571285708807409 ] ] ] } },
{ "type": "Feature", "properties": { "fid": 53 }, "geometry": { "type": "Polygon", "coordinates": [ [ [ 819766.804458430735394, 7629079.46586880274117 ], [ 819884.825822572573088, 7629201.913034100085497 ], [ 820060.398498883121647, 7629282.884907649829984 ], [ 820077.850859963335097, 7629203.018170502968132 ], [ 820066.782425716519356, 7629200.558518447913229 ], [ 819948.789061894407496, 7629147.58190611936152 ], [ 819888.588366066804156, 7629140.357822620309889 ], [ 819766.804458430735394, 7629079.46586880274117 ] ] ] } },
{ "type": "Feature", "properties": { "fid": 54 }, "geometry": { "type": "Polygon", "coordinates": [ [ [ 818494.956758131738752, 7629306.573907868936658 ], [ 818509.84192987321876, 7629180.240783601999283 ], [ 818489.809522298513912, 7628866.39973159879446 ], [ 817964.355646204203367, 7628856.613341356627643 ], [ 817980.509171077632345, 7629082.762689583934844 ], [ 818494.956758131738752, 7629306.573907868936658 ] ] ] } },
{ "type": "Feature", "properties": { "fid": 55 }, "geometry": { "type": "Polygon", "coordinates": [ [ [ 818871.352926985709928, 7628873.505840855650604 ], [ 818859.691504513612017, 7628295.099286238662899 ], [ 818854.69111903232988, 7628291.184255745261908 ], [ 818461.854669095948339, 7628428.440364759415388 ], [ 818489.809522298513912, 7628866.39973159879446 ], [ 818871.352926985709928, 7628873.505840855650604 ] ] ] } },
{ "type": "Feature", "properties": { "fid": 56 }, "geometry": { "type": "Polygon", "coordinates": [ [ [ 818864.273697283468209, 7629690.70219911262393 ], [ 818877.27664843283128, 7629472.902767361141741 ], [ 818494.956758131738752, 7629306.573907868936658 ], [ 818420.373985516256653, 7629939.571285708807409 ], [ 818520.828556863823906, 7630009.655870370566845 ], [ 818583.437280524522066, 7630036.144176534377038 ], [ 818864.273697283468209, 7629690.70219911262393 ] ] ] } },
{ "type": "Feature", "properties": { "fid": 57 }, "geometry": { "type": "Polygon", "coordinates": [ [ [ 818877.27664843283128, 7629472.902767361141741 ], [ 818881.882230086601339, 7629395.759274661540985 ], [ 818871.352926985709928, 7628873.505840855650604 ], [ 818489.809522298513912, 7628866.39973159879446 ], [ 818509.84192987321876, 7629180.240783601999283 ], [ 818494.956758131738752, 7629306.573907868936658 ], [ 818877.27664843283128, 7629472.902767361141741 ] ] ] } },
{ "type": "Feature", "properties": { "fid": 58 }, "geometry": { "type": "Polygon", "coordinates": [ [ [ 820534.427602165029384, 7629517.454883265309036 ], [ 820634.482125522103161, 7629356.513748292811215 ], [ 820627.852910829591565, 7629354.672299766913056 ], [ 820384.642099686199799, 7629311.327798770740628 ], [ 820196.815928704105318, 7629229.454852445051074 ], [ 820077.850859963335097, 7629203.018170502968132 ], [ 820060.398498883121647, 7629282.884907649829984 ], [ 820412.183918021270074, 7629445.123845242895186 ], [ 820534.427602165029384, 7629517.454883265309036 ] ] ] } },
{ "type": "Feature", "properties": { "fid": 59 }, "geometry": { "type": "Polygon", "coordinates": [ [ [ 819223.605162595398724, 7629248.707626757211983 ], [ 819945.370516233961098, 7629765.908468402922153 ], [ 819957.066657565534115, 7629755.759435713291168 ], [ 820060.398498883121647, 7629282.884907649829984 ], [ 819884.825822572573088, 7629201.913034100085497 ], [ 819766.804458430735394, 7629079.46586880274117 ], [ 819720.026417749584652, 7629056.076848462224007 ], [ 819604.441081760567613, 7628966.979818637482822 ], [ 819520.573646296281368, 7628885.597344223409891 ], [ 819518.83187959191855, 7628885.564904442988336 ], [ 819223.605162595398724, 7629248.707626757211983 ] ] ] } },
{ "type": "Feature", "properties": { "fid": 60 }, "geometry": { "type": "Polygon", "coordinates": [ [ [ 821065.52236380695831, 7632214.403074065223336 ], [ 820965.209449009620585, 7632564.008480091579258 ], [ 821126.402121716877446, 7632631.416325041092932 ], [ 821128.722700115176849, 7632622.366069287993014 ], [ 821147.986922779935412, 7632634.406208453699946 ], [ 821150.394950613146648, 7632680.158737282268703 ], [ 821184.107340276590548, 7632680.158737282268703 ], [ 821249.124091770383529, 7632624.774097121320665 ], [ 821314.14084326417651, 7632583.837623958475888 ], [ 821367.117455592378974, 7632473.068343635648489 ], [ 821417.686040087603033, 7632439.355953971855342 ], [ 821465.846596749615856, 7632364.707091146148741 ], [ 821463.438568916521035, 7632321.362590149976313 ], [ 821436.950262752361596, 7632270.794005654752254 ], [ 821424.910123586887494, 7632210.593309827148914 ], [ 821065.52236380695831, 7632214.403074065223336 ] ] ] } },
{ "type": "Feature", "properties": { "fid": 61 }, "geometry": { "type": "Polygon", "coordinates": [ [ [ 819455.895432509132661, 7629415.161616963334382 ], [ 819481.801151817780919, 7630157.175434306263924 ], [ 819501.949397109914571, 7630150.676000340841711 ], [ 819945.370516233961098, 7629765.908468402922153 ], [ 819455.895432509132661, 7629415.161616963334382 ] ] ] } },
{ "type": "Feature", "properties": { "fid": 62 }, "geometry": { "type": "Polygon", "coordinates": [ [ [ 819156.058366651181132, 7630262.253752102144063 ], [ 819135.929166478919797, 7630154.288042087107897 ], [ 819115.950857289950363, 7629381.127476475201547 ], [ 818586.180333302239887, 7630032.770092835649848 ], [ 818595.326917949831113, 7630049.538831356912851 ], [ 818666.363739026128314, 7630072.415095770731568 ], [ 818860.287661965820007, 7630357.663656839169562 ], [ 819156.058366651181132, 7630262.253752102144063 ] ] ] } },
{ "type": "Feature", "properties": { "fid": 63 }, "geometry": { "type": "Polygon", "coordinates": [ [ [ 819115.950857289950363, 7629381.127476475201547 ], [ 819135.929166478919797, 7630154.288042087107897 ], [ 819156.058366651181132, 7630262.253752102144063 ], [ 819481.801151817780919, 7630157.175434306263924 ], [ 819455.895432509132661, 7629415.161616963334382 ], [ 819223.605162595398724, 7629248.707626757211983 ], [ 819115.950857289950363, 7629381.127476475201547 ] ] ] } },
{ "type": "Feature", "properties": { "fid": 64 }, "geometry": { "type": "Polygon", "coordinates": [ [ [ 819100.287676354404539, 7628559.530636441893876 ], [ 819106.88357162324246, 7628877.89251475315541 ], [ 819518.83187959191855, 7628885.564904442988336 ], [ 819519.585245331632905, 7628884.638229213654995 ], [ 819279.357324291602708, 7628651.528172500431538 ], [ 819178.220155301154591, 7628641.896061168052256 ], [ 819127.651570806046948, 7628593.735504506155849 ], [ 819100.287676354404539, 7628559.530636441893876 ] ] ] } },
{ "type": "Feature", "properties": { "fid": 65 }, "geometry": { "type": "Polygon", "coordinates": [ [ [ 819106.88357162324246, 7628877.89251475315541 ], [ 819116.664943814161234, 7629350.006745832972229 ], [ 819121.519220345886424, 7629374.278128491714597 ], [ 819518.83187959191855, 7628885.564904442988336 ], [ 819106.88357162324246, 7628877.89251475315541 ] ] ] } },
{ "type": "Feature", "properties": { "fid": 66 }, "geometry": { "type": "Polygon", "coordinates": [ [ [ 818859.57814672740642, 7628289.476740044541657 ], [ 818859.691504513612017, 7628295.099286238662899 ], [ 818922.216696292161942, 7628344.05311856046319 ], [ 818989.039468660601415, 7628401.243779596872628 ], [ 819029.150484651327133, 7628428.572164118289948 ], [ 819036.146513148094527, 7628237.34738520719111 ], [ 819043.087059985729866, 7628225.359167941845953 ], [ 818859.57814672740642, 7628289.476740044541657 ] ] ] } },
{ "type": "Feature", "properties": { "fid": 67 }, "geometry": { "type": "Polygon", "coordinates": [ [ [ 818859.341491825296544, 7628277.738656899891794 ], [ 818859.57814672740642, 7628289.476740043610334 ], [ 818865.267128910985775, 7628287.48902337718755 ], [ 818859.341491825296544, 7628277.738656899891794 ] ] ] } },
{ "type": "Feature", "properties": { "fid": 68 }, "geometry": { "type": "Polygon", "coordinates": [ [ [ 818859.691504513612017, 7628295.099286238662899 ], [ 818871.352926985709928, 7628873.505840855650604 ], [ 819106.88357162324246, 7628877.89251475315541 ], [ 819100.287676354404539, 7628559.530636441893876 ], [ 819098.755236808792688, 7628557.615087009966373 ], [ 819069.858902811538428, 7628499.822419014759362 ], [ 819028.922429648810066, 7628434.805667521432042 ], [ 819029.150484651327133, 7628428.572164118289948 ], [ 818989.039468660601415, 7628401.243779596872628 ], [ 818922.216696292161942, 7628344.05311856046319 ], [ 818859.691504513612017, 7628295.099286238662899 ] ] ] } },
{ "type": "Feature", "properties": { "fid": 69 }, "geometry": { "type": "Polygon", "coordinates": [ [ [ 818877.27664843283128, 7629472.902767361141741 ], [ 818864.273697283468209, 7629690.70219911262393 ], [ 818998.473798035061918, 7629525.629774713888764 ], [ 818877.27664843283128, 7629472.902767361141741 ] ] ] } },
{ "type": "Feature", "properties": { "fid": 70 }, "geometry": { "type": "Polygon", "coordinates": [ [ [ 818871.352926985709928, 7628873.505840855650604 ], [ 818881.882230086601339, 7629395.759274661540985 ], [ 818877.27664843283128, 7629472.902767361141741 ], [ 818998.473798035061918, 7629525.629774713888764 ], [ 819121.519220345886424, 7629374.278128491714597 ], [ 819116.664943814161234, 7629350.006745832972229 ], [ 819106.88357162324246, 7628877.89251475315541 ], [ 818871.352926985709928, 7628873.505840855650604 ] ] ] } },
{ "type": "Feature", "properties": { "fid": 71 }, "geometry": { "type": "Polygon", "coordinates": [ [ [ 819900.813594042090699, 7633892.749363639391959 ], [ 820256.618692379212007, 7633304.228498280979693 ], [ 820194.407900871010497, 7633248.453305894508958 ], [ 820100.494815379963256, 7633205.10880489833653 ], [ 820069.190453549614176, 7633149.724164737388492 ], [ 820013.746175482403487, 7633122.896288252435625 ], [ 819701.397386048221961, 7633598.438546324148774 ], [ 819900.813594042090699, 7633892.749363639391959 ] ] ] } },
{ "type": "Feature", "properties": { "fid": 72 }, "geometry": { "type": "Polygon", "coordinates": [ [ [ 820256.618692379212007, 7633304.228498280979693 ], [ 819900.813594042090699, 7633892.749363639391959 ], [ 820045.110175218549557, 7634105.711214479058981 ], [ 820290.729014195152558, 7633754.139150845818222 ], [ 820281.096902862773277, 7633364.038641883060336 ], [ 820264.240708030993119, 7633311.062029555439949 ], [ 820256.618692379212007, 7633304.228498280979693 ] ] ] } },
{ "type": "Feature", "properties": { "fid": 73 }, "geometry": { "type": "Polygon", "coordinates": [ [ [ 819884.312617764691822, 7632822.171151184476912 ], [ 819872.78568340674974, 7632824.790908993221819 ], [ 819758.404361334512942, 7632776.630352331325412 ], [ 819653.65515059477184, 7632768.202254914678633 ], [ 819438.13665953243617, 7632864.523368239402771 ], [ 819462.380652824067511, 7632915.031687595881522 ], [ 819512.936024102731608, 7632841.49660210032016 ], [ 819626.113332258537412, 7632815.008295935578644 ], [ 819775.411057910998352, 7632836.680546433664858 ], [ 819852.467948570265435, 7632855.944769098423421 ], [ 819936.748922728933394, 7632978.754188586957753 ], [ 820014.419891306199133, 7633022.885420733131468 ], [ 819884.312617764691822, 7632822.171151184476912 ] ] ] } },
{ "type": "Feature", "properties": { "fid": 74 }, "geometry": { "type": "Polygon", "coordinates": [ [ [ 818645.926873874152079, 7633106.949551975354552 ], [ 818285.895341394469142, 7633566.463481587357819 ], [ 818220.431729795178398, 7633714.719307856634259 ], [ 818301.69802405172959, 7633917.88504349719733 ], [ 818308.922107551014051, 7634021.430240320973098 ], [ 818313.738163217203692, 7634146.647687641903758 ], [ 818342.634497214457951, 7634300.761468960903585 ], [ 818342.634497214457951, 7634316.246940236538649 ], [ 818793.98921417852398, 7633920.443573052994907 ], [ 818815.661464676377364, 7633824.122459729202092 ], [ 818870.860673153889365, 7633478.682251837104559 ], [ 818645.926873874152079, 7633106.949551975354552 ] ] ] } },
{ "type": "Feature", "properties": { "fid": 75 }, "geometry": { "type": "Polygon", "coordinates": [ [ [ 819204.00774715282023, 7633573.615613230504096 ], [ 819030.464691634871997, 7633365.1310029104352 ], [ 818872.250118754222058, 7633480.978493513539433 ], [ 818870.860673153889365, 7633478.682251837104559 ], [ 818815.661464676377364, 7633824.122459729202092 ], [ 818805.959276319365017, 7633867.243296871893108 ], [ 819204.00774715282023, 7633573.615613230504096 ] ] ] } },
{ "type": "Feature", "properties": { "fid": 76 }, "geometry": { "type": "Polygon", "coordinates": [ [ [ 819262.489807313657366, 7634676.126432685181499 ], [ 818482.149609791929834, 7634329.80830467864871 ], [ 818450.4422916774638, 7634328.298432387411594 ], [ 818482.300111534423195, 7634365.778220454230905 ], [ 818475.076028035138734, 7634466.915389444679022 ], [ 818491.932222866802476, 7634572.868614100851119 ], [ 818520.828556864056736, 7634649.925504760816693 ], [ 818540.092779528931715, 7634789.591119080781937 ], [ 818561.765030026901513, 7634878.688148905523121 ], [ 818609.925586688914336, 7634953.337011731229722 ], [ 818665.310226850328036, 7634975.009262229315937 ], [ 818720.694867011741735, 7634967.785178730264306 ], [ 818788.119646338629536, 7634917.216594235040247 ], [ 818915.745121493120678, 7634832.935620076023042 ], [ 819057.818763646180741, 7634816.07942524459213 ], [ 819146.915793471038342, 7634794.407174746505916 ], [ 819207.116489298641682, 7634751.062673751264811 ], [ 819228.788739796495065, 7634693.270005756057799 ], [ 819243.236906795180403, 7634678.821838757954538 ], [ 819262.489807313657366, 7634676.126432685181499 ] ] ] } },
{ "type": "Feature", "properties": { "fid": 77 }, "geometry": { "type": "Polygon", "coordinates": [ [ [ 818647.718388204928488, 7633091.697492292150855 ], [ 818315.292359777726233, 7632572.843353328295052 ], [ 818143.327411538222805, 7632649.453330269083381 ], [ 818136.748117484035902, 7632741.563447026535869 ], [ 818112.667839152971283, 7632789.724003689363599 ], [ 818016.346725828829221, 7632840.292588184587657 ], [ 818016.346725828829221, 7632979.958202504552901 ], [ 817946.5139186688466, 7633078.687343661673367 ], [ 817934.473779503256083, 7633249.657319812104106 ], [ 817963.370113500510342, 7633389.322934132069349 ], [ 818033.202920660609379, 7633442.299546459689736 ], [ 818156.012340148794465, 7633514.540381453 ], [ 818195.744799395091832, 7633653.001981856301427 ], [ 818220.431729795178398, 7633714.719307856634259 ], [ 818285.895341394469142, 7633566.463481587357819 ], [ 818645.926873874152079, 7633106.949551975354552 ], [ 818643.487474609864876, 7633102.918123717419803 ], [ 818647.099516359507106, 7633092.081998468376696 ], [ 818647.718388204928488, 7633091.697492292150855 ] ] ] } },
{ "type": "Feature", "properties": { "fid": 78 }, "geometry": { "type": "Polygon", "coordinates": [ [ [ 818315.292359777726233, 7632572.843353328295052 ], [ 818647.718388204928488, 7633091.697492292150855 ], [ 818850.577868256368674, 7632965.660537230782211 ], [ 818846.965826506842859, 7632898.23575790412724 ], [ 818887.902299669571221, 7632856.095270824618638 ], [ 819536.920411562197842, 7632509.265486162155867 ], [ 818755.416432472760789, 7632376.769121890887618 ], [ 818315.292359777726233, 7632572.843353328295052 ] ] ] } },
{ "type": "Feature", "properties": { "fid": 79 }, "geometry": { "type": "Polygon", "coordinates": [ [ [ 818776.043391599436291, 7633936.180679007433355 ], [ 819047.831591364811175, 7633989.235224851407111 ], [ 819250.310488550341688, 7633860.242877223528922 ], [ 819359.725528352078982, 7633827.027597283944488 ], [ 819356.414214950986207, 7633821.563930172473192 ], [ 819390.87187749275472, 7633798.103393973782659 ], [ 819204.00774715282023, 7633573.615613230504096 ], [ 818805.959276319365017, 7633867.243296871893108 ], [ 818793.98921417852398, 7633920.443573052994907 ], [ 818776.043391599436291, 7633936.180679007433355 ] ] ] } },
{ "type": "Feature", "properties": { "fid": 80 }, "geometry": { "type": "Polygon", "coordinates": [ [ [ 819047.831591364811175, 7633989.235224851407111 ], [ 819529.913919777842239, 7634083.340336904861033 ], [ 819404.574771612999029, 7633901.028848664835095 ], [ 819359.725528352078982, 7633827.027597283944488 ], [ 819250.310488550341688, 7633860.242877223528922 ], [ 819047.831591364811175, 7633989.235224851407111 ] ] ] } },
{ "type": "Feature", "properties": { "fid": 81 }, "geometry": { "type": "Polygon", "coordinates": [ [ [ 819544.276412922888994, 7634104.23123602475971 ], [ 818920.003016723901965, 7634524.129413230344653 ], [ 819262.489807313657366, 7634676.126432685181499 ], [ 819363.638298450387083, 7634661.965643925592303 ], [ 819440.695189109654166, 7634659.557616093195975 ], [ 819469.591523106908426, 7634640.293393428437412 ], [ 819508.119968436541967, 7634618.621142930351198 ], [ 819577.952775596524589, 7634599.356920265592635 ], [ 819671.865861087455414, 7634539.156224437057972 ], [ 819712.802334250300191, 7634498.219751274213195 ], [ 819741.698668247554451, 7634425.978916281834245 ], [ 819748.922751746838912, 7634401.89863795042038 ], [ 819544.276412922888994, 7634104.23123602475971 ] ] ] } },
{ "type": "Feature", "properties": { "fid": 82 }, "geometry": { "type": "Polygon", "coordinates": [ [ [ 820193.342292959685437, 7632625.029202261939645 ], [ 820058.203826554934494, 7632688.737336424179375 ], [ 819926.966309651033953, 7632711.613600838929415 ], [ 819817.705782868666574, 7632719.417924180626869 ], [ 820014.419891306199133, 7633022.885420733131468 ], [ 820042.702147385454737, 7633038.954884414561093 ], [ 820112.534954545437358, 7633063.035162745043635 ], [ 820194.407900871010497, 7632995.610383418388665 ], [ 820271.46479153027758, 7632983.570244252681732 ], [ 820309.993236859911121, 7632981.162216420285404 ], [ 820193.342292959685437, 7632625.029202261939645 ] ] ] } },
{ "type": "Feature", "properties": { "fid": 83 }, "geometry": { "type": "Polygon", "coordinates": [ [ [ 820965.209449009620585, 7632564.008480091579258 ], [ 820867.940456922748126, 7632903.005363403819501 ], [ 820972.200890963431448, 7632983.570244253613055 ], [ 821075.74608778685797, 7632964.306021588854492 ], [ 821102.23439395101741, 7632841.49660210032016 ], [ 821104.64242178411223, 7632716.279154779389501 ], [ 821126.402121716877446, 7632631.416325041092932 ], [ 820965.209449009620585, 7632564.008480091579258 ] ] ] } },
{ "type": "Feature", "properties": { "fid": 84 }, "geometry": { "type": "Polygon", "coordinates": [ [ [ 820438.931336514651775, 7632220.931955537758768 ], [ 820476.039170070551336, 7632603.04234972037375 ], [ 820480.558785724686459, 7632609.28840241022408 ], [ 820646.966631747432984, 7632627.332626678049564 ], [ 820752.919856403837912, 7632603.252348346635699 ], [ 820851.648997560841963, 7632547.867708185687661 ], [ 820880.545331558096223, 7632528.603485520929098 ], [ 820965.209449009620585, 7632564.008480091579258 ], [ 821065.52236380695831, 7632214.403074065223336 ], [ 820743.438246818608604, 7632217.817393326200545 ], [ 820742.988506403984502, 7632201.626738402061164 ], [ 820438.931336514651775, 7632220.931955537758768 ] ] ] } },
{ "type": "Feature", "properties": { "fid": 85 }, "geometry": { "type": "Polygon", "coordinates": [ [ [ 820867.940456922748126, 7632903.005363403819501 ], [ 820965.209449009620585, 7632564.008480091579258 ], [ 820880.545331558096223, 7632528.603485520929098 ], [ 820851.648997560841963, 7632547.867708185687661 ], [ 820752.919856403837912, 7632603.252348346635699 ], [ 820646.966631747432984, 7632627.332626678049564 ], [ 820480.558785724686459, 7632609.28840241022408 ], [ 820721.765996320638806, 7632942.633771090768278 ], [ 820866.247666306910105, 7632901.697297927923501 ], [ 820867.940456922748126, 7632903.005363403819501 ] ] ] } },
{ "type": "Feature", "properties": { "fid": 86 }, "geometry": { "type": "Polygon", "coordinates": [ [ [ 819958.127866166643798, 7629750.903057369403541 ], [ 820271.799977897899225, 7629939.900431019254029 ], [ 820534.427602165029384, 7629517.454883265309036 ], [ 820412.183918021270074, 7629445.123845242895186 ], [ 820060.398498883121647, 7629282.884907649829984 ], [ 819958.127866166643798, 7629750.903057369403541 ] ] ] } },
{ "type": "Feature", "properties": { "fid": 87 }, "geometry": { "type": "Polygon", "coordinates": [ [ [ 821287.035988300223835, 7630907.224528333172202 ], [ 821141.816351449117064, 7631103.051008329726756 ], [ 821127.368184450548142, 7631298.101262810640037 ], [ 821149.179028940270655, 7631482.654562339186668 ], [ 821304.196694429847412, 7631483.260100095532835 ], [ 821304.508731931680813, 7631480.960876397788525 ], [ 821335.813093762029894, 7631473.736792898736894 ], [ 821311.73281543108169, 7631324.439067245461047 ], [ 821297.284648432396352, 7631151.061063262633979 ], [ 821448.990401917952113, 7630982.499114944599569 ], [ 821287.035988300223835, 7630907.224528333172202 ] ] ] } },
{ "type": "Feature", "properties": { "fid": 88 }, "geometry": { "type": "Polygon", "coordinates": [ [ [ 819474.777380655054003, 7631221.938634747639298 ], [ 819854.693640668410808, 7630610.83029071893543 ], [ 819839.073293742723763, 7630599.773191209882498 ], [ 819656.063178427168168, 7630385.458714064210653 ], [ 819668.10331759264227, 7630356.562380067072809 ], [ 819507.672258603037335, 7630145.710131108760834 ], [ 819501.949397109914571, 7630150.676000340841711 ], [ 818860.287661965820007, 7630357.663656839169562 ], [ 818873.454132672632113, 7630377.030616657808423 ], [ 818866.187560973223299, 7630380.071518945507705 ], [ 819054.056220154860057, 7630623.853469549678266 ], [ 819374.323921957053244, 7631081.3787578381598 ], [ 819474.777380655054003, 7631221.938634747639298 ] ] ] } },
{ "type": "Feature", "properties": { "fid": 89 }, "geometry": { "type": "Polygon", "coordinates": [ [ [ 820634.482125522103161, 7629356.513748292811215 ], [ 820534.427602165029384, 7629517.454883265309036 ], [ 821083.803649881971069, 7629842.518219457939267 ], [ 821333.405065929051489, 7629479.889747087843716 ], [ 821102.23439395101741, 7629441.36130175832659 ], [ 821056.481865122099407, 7629455.809468757361174 ], [ 820979.424974462715909, 7629424.505106926895678 ], [ 820931.264417800703086, 7629438.953273924998939 ], [ 820634.482125522103161, 7629356.513748292811215 ] ] ] } },
{ "type": "Feature", "properties": { "fid": 90 }, "geometry": { "type": "Polygon", "coordinates": [ [ [ 820271.799977897899225, 7629939.900431019254029 ], [ 820821.585236832383089, 7630271.163447795435786 ], [ 821086.666104208910838, 7629855.964180209673941 ], [ 821078.154115620069206, 7629850.726033385843039 ], [ 821083.803649881971069, 7629842.518219457939267 ], [ 820534.427602165029384, 7629517.454883265309036 ], [ 820271.799977897899225, 7629939.900431019254029 ] ] ] } },
{ "type": "Feature", "properties": { "fid": 91 }, "geometry": { "type": "Polygon", "coordinates": [ [ [ 819645.453685731627047, 7631460.758091478608549 ], [ 820055.747158870915882, 7631470.70459991786629 ], [ 820371.270341052440926, 7630976.496943799778819 ], [ 819854.693640668410808, 7630610.83029071893543 ], [ 819474.777380655054003, 7631221.938634747639298 ], [ 819645.453685731627047, 7631460.758091478608549 ] ] ] } },
{ "type": "Feature", "properties": { "fid": 92 }, "geometry": { "type": "Polygon", "coordinates": [ [ [ 820271.799977897899225, 7629939.900431019254029 ], [ 819958.127866166643798, 7629750.903057369403541 ], [ 819957.066657565534115, 7629755.759435713291168 ], [ 819507.672258603037335, 7630145.710131108760834 ], [ 819668.10331759264227, 7630356.562380067072809 ], [ 819656.063178427168168, 7630385.458714064210653 ], [ 819839.073293742723763, 7630599.773191209882498 ], [ 819854.693640668410808, 7630610.83029071893543 ], [ 820271.799977897899225, 7629939.900431019254029 ] ] ] } },
{ "type": "Feature", "properties": { "fid": 93 }, "geometry": { "type": "Polygon", "coordinates": [ [ [ 820821.585236832383089, 7630271.163447795435786 ], [ 820271.799977897899225, 7629939.900431019254029 ], [ 819854.693640668410808, 7630610.83029071893543 ], [ 820371.270341052440926, 7630976.496943799778819 ], [ 820821.585236832383089, 7630271.163447795435786 ] ] ] } },
{ "type": "Feature", "properties": { "fid": 94 }, "geometry": { "type": "Polygon", "coordinates": [ [ [ 821304.196694429847412, 7631483.260100095532835 ], [ 820754.123870320152491, 7631481.111378125846386 ], [ 820743.121617834549397, 7631811.178952693939209 ], [ 821258.756203102762811, 7631818.0847730319947 ], [ 821304.196694429847412, 7631483.260100095532835 ] ] ] } },
{ "type": "Feature", "properties": { "fid": 95 }, "geometry": { "type": "Polygon", "coordinates": [ [ [ 820676.283023604541086, 7631192.312441208399832 ], [ 820371.301167514990084, 7630976.448659949935973 ], [ 820055.747158870799467, 7631470.70459991786629 ], [ 820385.695611856062897, 7631478.703350293450058 ], [ 820501.280947844847105, 7631425.726737964898348 ], [ 820676.283023604541086, 7631192.312441208399832 ] ] ] } },
{ "type": "Feature", "properties": { "fid": 96 }, "geometry": { "type": "Polygon", "coordinates": [ [ [ 820055.747158870915882, 7631470.70459991786629 ], [ 819645.453685731627047, 7631460.758091478608549 ], [ 819865.510869941324927, 7631768.673927593044937 ], [ 820055.747158870915882, 7631470.70459991786629 ] ] ] } },
{ "type": "Feature", "properties": { "fid": 97 }, "geometry": { "type": "Polygon", "coordinates": [ [ [ 820990.325427380157635, 7630773.448913384228945 ], [ 821279.505140416091308, 7630894.77143666986376 ], [ 821333.405065928935073, 7630594.806633815169334 ], [ 821400.82984525593929, 7630411.796518499031663 ], [ 821350.900546911871061, 7630292.520972454920411 ], [ 820990.325427380157635, 7630773.448913384228945 ] ] ] } },
{ "type": "Feature", "properties": { "fid": 98 }, "geometry": { "type": "Polygon", "coordinates": [ [ [ 820366.806924509000964, 7631478.245442721061409 ], [ 820399.898909806506708, 7631819.003453488461673 ], [ 820719.525552765466273, 7631826.613611654378474 ], [ 820719.357968487543985, 7631810.86068953294307 ], [ 820743.121617834549397, 7631811.178952693939209 ], [ 820753.745004101307131, 7631492.477364692837 ], [ 820411.517151861684397, 7631466.868477790616453 ], [ 820385.695611856062897, 7631478.703350293450058 ], [ 820366.806924509000964, 7631478.245442721061409 ] ] ] } },
{ "type": "Feature", "properties": { "fid": 99 }, "geometry": { "type": "Polygon", "coordinates": [ [ [ 820992.919487709063105, 7630769.9890071824193 ], [ 820631.774554015952162, 7630568.466143629513681 ], [ 820371.301167514990084, 7630976.448659949935973 ], [ 820676.283023604541086, 7631192.312441208399832 ], [ 820992.919487709063105, 7630769.9890071824193 ] ] ] } },
{ "type": "Feature", "properties": { "fid": 100 }, "geometry": { "type": "Polygon", "coordinates": [ [ [ 820824.440905104391277, 7630266.690581130795181 ], [ 821185.870985727757215, 7630512.634127117693424 ], [ 821350.900546911871061, 7630292.520972454920411 ], [ 821227.451841272530146, 7629997.615731204859912 ], [ 821203.371562941465527, 7629927.782924044877291 ], [ 821086.666104208910838, 7629855.964180209673941 ], [ 820824.440905104391277, 7630266.690581130795181 ] ] ] } },
{ "type": "Feature", "properties": { "fid": 101 }, "geometry": { "type": "Polygon", "coordinates": [ [ [ 821185.870985727757215, 7630512.634127117693424 ], [ 820824.440905104391277, 7630266.690581130795181 ], [ 820631.774554015952162, 7630568.466143629513681 ], [ 820992.919487709063105, 7630769.9890071824193 ], [ 821185.870985727757215, 7630512.634127117693424 ] ] ] } },
{ "type": "Feature", "properties": { "fid": 102 }, "geometry": { "type": "Polygon", "coordinates": [ [ [ 820399.898909806506708, 7631819.003453488461673 ], [ 820438.931336514651775, 7632220.931955537758768 ], [ 820742.988506403984502, 7632201.626738402061164 ], [ 820738.622191152418964, 7632044.4393893443048 ], [ 820721.765996320638806, 7632037.215305844321847 ], [ 820719.525552765466273, 7631826.613611654378474 ], [ 820399.898909806506708, 7631819.003453488461673 ] ] ] } },
{ "type": "Feature", "properties": { "fid": 103 }, "geometry": { "type": "Polygon", "coordinates": [ [ [ 820411.517151861684397, 7631466.868477790616453 ], [ 820753.745004101307131, 7631492.477364692837 ], [ 820754.123870320152491, 7631481.111378125846386 ], [ 821149.179028940270655, 7631482.654562339186668 ], [ 821127.368184450548142, 7631298.101262810640037 ], [ 821141.816351449117064, 7631103.051008329726756 ], [ 821287.035988300223835, 7630907.224528333172202 ], [ 821278.020425767637789, 7630903.034196452237666 ], [ 821279.505140416091308, 7630894.77143666986376 ], [ 820990.325427380157635, 7630773.448913384228945 ], [ 820501.280947844847105, 7631425.726737964898348 ], [ 820411.517151861684397, 7631466.868477790616453 ] ] ] } },
{ "type": "Feature", "properties": { "fid": 104 }, "geometry": { "type": "Polygon", "coordinates": [ [ [ 820476.039170070551336, 7632603.04234972037375 ], [ 820438.931336514651775, 7632220.931955537758768 ], [ 820210.060711317113601, 7632235.463423803448677 ], [ 820476.039170070551336, 7632603.04234972037375 ] ] ] } },
{ "type": "Feature", "properties": { "fid": 105 }, "geometry": { "type": "Polygon", "coordinates": [ [ [ 820399.898909806506708, 7631819.003453488461673 ], [ 820366.806924509000964, 7631478.245442721061409 ], [ 820055.747158870799467, 7631470.70459991786629 ], [ 819865.510869941324927, 7631768.673927593044937 ], [ 819892.851856170222163, 7631806.930904592387378 ], [ 820399.898909806506708, 7631819.003453488461673 ] ] ] } },
{ "type": "Feature", "properties": { "fid": 106 }, "geometry": { "type": "Polygon", "coordinates": [ [ [ 820438.931336514651775, 7632220.931955537758768 ], [ 820399.898909806506708, 7631819.003453488461673 ], [ 819892.851856170222163, 7631806.930904592387378 ], [ 819952.89385330688674, 7631890.944893123582006 ], [ 819946.381034061312675, 7631871.06138536054641 ], [ 820210.060711317113601, 7632235.463423803448677 ], [ 820438.931336514651775, 7632220.931955537758768 ] ] ] } },
{ "type": "Feature", "properties": { "fid": 107 }, "geometry": { "type": "Polygon", "coordinates": [ [ [ 819316.572320313425735, 7633155.637969358824193 ], [ 819487.535877531976439, 7633364.465938578359783 ], [ 819803.731096420553513, 7633131.218792806379497 ], [ 819707.986278584110551, 7633089.523468909785151 ], [ 819556.28052509855479, 7633053.403051412664354 ], [ 819503.303912770235911, 7633024.506717415526509 ], [ 819462.367439607507549, 7632981.162216420285404 ], [ 819459.976251128944568, 7632918.991315977647901 ], [ 819454.992854364099912, 7632931.948147566057742 ], [ 819452.584826531005092, 7633029.473274806514382 ], [ 819447.768770864815451, 7633059.573622720316052 ], [ 819316.572320313425735, 7633155.637969358824193 ] ] ] } },
{ "type": "Feature", "properties": { "fid": 108 }, "geometry": { "type": "Polygon", "coordinates": [ [ [ 819487.535877531976439, 7633364.465938578359783 ], [ 819680.890414984663948, 7633600.643964191898704 ], [ 819695.946139418520033, 7633590.393258194439113 ], [ 819701.397386048221961, 7633598.438546324148774 ], [ 820013.746175482403487, 7633122.896288252435625 ], [ 819994.541590723441914, 7633113.603747240267694 ], [ 819922.300755730248056, 7633077.483329744078219 ], [ 819900.628505232394673, 7633130.459942072629929 ], [ 819857.284004236455075, 7633154.540220403112471 ], [ 819803.731096420553513, 7633131.218792806379497 ], [ 819487.535877531976439, 7633364.465938578359783 ] ] ] } },
{ "type": "Feature", "properties": { "fid": 109 }, "geometry": { "type": "Polygon", "coordinates": [ [ [ 819487.535877531976439, 7633364.465938578359783 ], [ 819316.572320313425735, 7633155.637969358824193 ], [ 819030.464691634871997, 7633365.1310029104352 ], [ 819204.00774715282023, 7633573.615613230504096 ], [ 819487.535877531976439, 7633364.465938578359783 ] ] ] } },
{ "type": "Feature", "properties": { "fid": 110 }, "geometry": { "type": "Polygon", "coordinates": [ [ [ 819680.890414984663948, 7633600.643964191898704 ], [ 819487.535877531976439, 7633364.465938578359783 ], [ 819204.00774715282023, 7633573.615613230504096 ], [ 819390.87187749275472, 7633798.103393973782659 ], [ 819680.890414984663948, 7633600.643964191898704 ] ] ] } },
{ "type": "Feature", "properties": { "fid": 111 }, "geometry": { "type": "Polygon", "coordinates": [ [ [ 817330.48132596060168, 7630714.052388604730368 ], [ 817258.924903566134162, 7630438.049045083113015 ], [ 816824.056573700043373, 7630625.995940500870347 ], [ 816850.710752869606949, 7630806.863584865815938 ], [ 816867.532260416308418, 7630907.792630146257579 ], [ 817330.48132596060168, 7630714.052388604730368 ] ] ] } },
{ "type": "Feature", "properties": { "fid": 112 }, "geometry": { "type": "Polygon", "coordinates": [ [ [ 817402.676405050908215, 7630992.519122239202261 ], [ 817330.48132596060168, 7630714.052388604730368 ], [ 816867.532260416308418, 7630907.792630146257579 ], [ 816874.791031200671569, 7630951.345254852436483 ], [ 816889.239198199240491, 7631078.970730006694794 ], [ 816959.644292556680739, 7631177.918430184945464 ], [ 817402.676405050908215, 7630992.519122239202261 ] ] ] } },
{ "type": "Feature", "properties": { "fid": 113 }, "geometry": { "type": "Polygon", "coordinates": [ [ [ 818203.720237498520873, 7630348.609340467490256 ], [ 818055.500277908635326, 7630093.775023979134858 ], [ 817635.670987789868377, 7630275.222156971693039 ], [ 817755.314798357547261, 7630536.263198209926486 ], [ 818203.720237498520873, 7630348.609340467490256 ] ] ] } },
{ "type": "Feature", "properties": { "fid": 114 }, "geometry": { "type": "Polygon", "coordinates": [ [ [ 818348.118097121594474, 7630596.872327187098563 ], [ 818203.720237498520873, 7630348.609340467490256 ], [ 817755.314798357547261, 7630536.263198209926486 ], [ 817874.026041204575449, 7630795.269546239636838 ], [ 818348.118097121594474, 7630596.872327187098563 ] ] ] } },
{ "type": "Feature", "properties": { "fid": 115 }, "geometry": { "type": "Polygon", "coordinates": [ [ [ 818747.862137311603874, 7631028.719456208869815 ], [ 818539.995727610774338, 7630820.85304650850594 ], [ 817968.046653143712319, 7631062.553044871427119 ], [ 818240.069388019968756, 7631242.936915162019432 ], [ 818747.862137311603874, 7631028.719456208869815 ] ] ] } },
{ "type": "Feature", "properties": { "fid": 116 }, "geometry": { "type": "Polygon", "coordinates": [ [ [ 819047.831591364811175, 7633989.235224851407111 ], [ 818776.043391599436291, 7633936.180679007433355 ], [ 818474.719993020175025, 7634200.418120837770402 ], [ 818527.902138620731421, 7634228.671135688200593 ], [ 818626.631279777735472, 7634257.567469685338438 ], [ 819047.831591364811175, 7633989.235224851407111 ] ] ] } },
{ "type": "Feature", "properties": { "fid": 117 }, "geometry": { "type": "Polygon", "coordinates": [ [ [ 819529.913919777842239, 7634083.340336904861033 ], [ 819047.831591364811175, 7633989.235224851407111 ], [ 818626.631279777735472, 7634257.567469685338438 ], [ 818527.902138620731421, 7634228.671135688200593 ], [ 818474.719993020175025, 7634200.418120837770402 ], [ 818342.634497214457951, 7634316.246940236538649 ], [ 818342.634497214457951, 7634334.473858624696732 ], [ 818405.243220875156112, 7634315.209635959938169 ], [ 818441.363638371694833, 7634317.617663792334497 ], [ 818450.4422916774638, 7634328.298432387411594 ], [ 818482.149609791929834, 7634329.80830467864871 ], [ 818920.003016723901965, 7634524.129413230344653 ], [ 819544.276412922888994, 7634104.23123602475971 ], [ 819529.913919777842239, 7634083.340336904861033 ] ] ] } }
]
}
